NORAD_CAT_ID,OBJECT_NAME,OBJECT_TYPE,EPOCH,MEAN_MOTION,ECCENTRICITY,INCLINATION,RA_OF_ASC_NODE,ARG_OF_PERICENTER,MEAN_ANOMALY,BSTAR,MEAN_MOTION_DOT,MEAN_MOTION_DDOT,TLE_LINE0,TLE_LINE1,TLE_LINE2,SEMIMAJOR_AXIS,PERIOD,APOGEE,PERIGEE,DECAYED
53539.0,STARLINK-4123,PAYLOAD,2023-05-26 21:06:20,15.08846361,0.0001112,53.2171,323.2477,82.3274,277.7844,0.00016141,2.282e-05,0.0,0 STARLINK-4123,1 53539U 22101N   23146.87940571  .00002282  00000-0  16141-3 0  9998,2 53539  53.2171 323.2477 0001112  82.3274 277.7844 15.08846361 42518,6917.861,95.437,540.495,538.957,0.0
53539.0,STARLINK-4123,PAYLOAD,2023-05-27 11:24:49,15.08834472,0.0001265,53.2167,320.571,78.9696,281.1439,0.00010415,1.37e-05,0.0,0 STARLINK-4123,1 53539U 22101N   23147.47557353  .00001370  00000-0  10415-3 0  9992,2 53539  53.2167 320.5710 0001265  78.9696 281.1439 15.08834472 42600,6917.897,95.438,540.637,538.887,0.0
53539.0,STARLINK-4123,PAYLOAD,2023-05-27 17:46:22,15.08835538,0.0001094,53.2163,319.3819,81.8365,278.2751,0.00017378,2.479e-05,0.0,0 STARLINK-4123,1 53539U 22101N   23147.74053361  .00002479  00000-0  17378-3 0  9998,2 53539  53.2163 319.3819 0001094  81.8365 278.2751 15.08835538 42640,6917.894,95.438,540.516,539.002,0.0
53539.0,STARLINK-4123,PAYLOAD,2023-05-28 04:54:03,15.08842458,0.0001116,53.2165,317.3002,80.805,279.3068,0.00014492,2.019e-05,0.0,0 STARLINK-4123,1 53539U 22101N   23148.20421047  .00002019  00000-0  14492-3 0  9994,2 53539  53.2165 317.3002 0001116  80.8050 279.3068 15.08842458 42719,6917.873,95.437,540.51,538.966,0.0
53539.0,STARLINK-4123,PAYLOAD,2023-05-28 17:37:08,15.08851581,0.0001086,53.2172,314.9204,85.6107,274.5009,0.00014807,2.07e-05,0.0,0 STARLINK-4123,1 53539U 22101N   23148.73412253  .00002070  00000-0  14807-3 0  9998,2 53539  53.2172 314.9204 0001086  85.6107 274.5009 15.08851581 42793,6917.845,95.437,540.461,538.959,0.0
53539.0,STARLINK-4123,PAYLOAD,2023-05-29 14:17:09,15.08848038,0.0001189,53.2163,311.0541,81.8524,278.2603,-0.00021123,-3.649e-05,0.0,0 STARLINK-4123,1 53539U 22101N   23149.59524503 -.00003649  00000-0 -21123-3 0  9999,2 53539  53.2163 311.0541 0001189  81.8524 278.2603 15.08848038 42929,6917.856,95.437,540.543,538.898,0.0
53539.0,STARLINK-4123,PAYLOAD,2023-05-29 17:27:55,15.08839177,0.0001072,53.2174,310.459,87.4675,272.6439,5.513e-05,5.9e-06,0.0,0 STARLINK-4123,1 53539U 22101N   23149.72773090  .00000590  00000-0  55130-4 0  9997,2 53539  53.2174 310.4590 0001072  87.4675 272.6439 15.08839177 42949,6917.883,95.438,540.49,539.006,0.0
53539.0,STARLINK-4123,PAYLOAD,2023-05-29 20:38:42,15.08839647,0.0001074,53.2174,309.8643,87.1238,272.9877,5.3048e-05,5.57e-06,0.0,0 STARLINK-4123,1 53539U 22101N   23149.86021039  .00000557  00000-0  53048-4 0  9990,2 53539  53.2174 309.8643 0001074  87.1238 272.9877 15.08839647 42967,6917.881,95.438,540.489,539.003,0.0
53539.0,STARLINK-4123,PAYLOAD,2023-05-30 10:57:10,15.0883985,0.0001053,53.2176,307.188,98.3597,261.7514,1.417e-05,-6.2e-07,0.0,0 STARLINK-4123,1 53539U 22101N   23150.45637081 -.00000062  00000-0  14170-4 0  9992,2 53539  53.2176 307.1880 0001053  98.3597 261.7514 15.08839850 43053,6917.881,95.438,540.474,539.017,0.0
53539.0,STARLINK-4123,PAYLOAD,2023-05-30 15:43:19,15.08842356,0.000107,53.2176,306.2959,98.4936,261.6177,3.0692e-05,2.01e-06,0.0,0 STARLINK-4123,1 53539U 22101N   23150.65508866  .00000201  00000-0  30692-4 0  9993,2 53539  53.2176 306.2959 0001070  98.4936 261.6177 15.08842356 43089,6917.873,95.437,540.478,538.998,0.0
53539.0,STARLINK-4123,PAYLOAD,2023-05-31 10:47:57,15.08840004,0.0001575,53.2192,302.7325,128.1773,231.9361,4.0855e-05,3.62e-06,0.0,0 STARLINK-4123,1 53539U 22101N   23151.44997019  .00000362  00000-0  40855-4 0  9993,2 53539  53.2192 302.7325 0001575 128.1773 231.9361 15.08840004 43202,6917.88,95.438,540.835,538.656,0.0
53539.0,STARLINK-4123,PAYLOAD,2023-05-31 13:58:43,15.08838698,0.0001257,53.2187,302.1379,109.9361,250.1766,6.4058e-05,7.32e-06,0.0,0 STARLINK-4123,1 53539U 22101N   23151.58245084  .00000732  00000-0  64058-4 0  9998,2 53539  53.2187 302.1379 0001257 109.9361 250.1766 15.08838698 43226,6917.884,95.438,540.619,538.88,0.0
53539.0,STARLINK-4123,PAYLOAD,2023-05-31 17:09:29,15.08842385,0.000151,53.2191,301.5438,125.9956,234.1176,5.4776e-05,5.84e-06,0.0,0 STARLINK-4123,1 53539U 22101N   23151.71492819  .00000584  00000-0  54776-4 0  9994,2 53539  53.2191 301.5438 0001510 125.9956 234.1176 15.08842385 43247,6917.873,95.437,540.783,538.694,0.0
53539.0,STARLINK-4123,PAYLOAD,2023-06-01 10:38:44,15.08851193,0.0001792,53.2192,298.2738,115.4346,244.6832,-0.00015354,-2.732e-05,0.0,0 STARLINK-4123,1 53539U 22101N   23152.44357208 -.00002732  00000-0 -15354-3 0  9994,2 53539  53.2192 298.2738 0001792 115.4346 244.6832 15.08851193 43356,6917.846,95.437,540.951,538.471,0.0
53539.0,STARLINK-4123,PAYLOAD,2023-06-01 13:49:31,15.08837824,0.0001076,53.2191,297.6791,97.5862,262.5252,3.7595e-05,3.11e-06,0.0,0 STARLINK-4123,1 53539U 22101N   23152.57605423  .00000311  00000-0  37595-4 0  9994,2 53539  53.2191 297.6791 0001076  97.5862 262.5252 15.08837824 43377,6917.887,95.438,540.496,539.008,0.0
53539.0,STARLINK-4123,PAYLOAD,2023-06-02 13:40:18,15.08833397,0.0001023,53.2177,293.214,89.5256,270.5854,6.1483e-05,6.91e-06,0.0,0 STARLINK-4123,1 53539U 22101N   23153.56965792  .00000691  00000-0  61483-4 0  9996,2 53539  53.2177 293.2140 0001023  89.5256 270.5854 15.08833397 43526,6917.901,95.438,540.473,539.058,0.0
53539.0,STARLINK-4123,PAYLOAD,2023-06-02 16:51:04,15.08837496,0.0001027,53.2178,292.6194,89.8728,270.2381,1.745e-05,-1e-07,0.0,0 STARLINK-4123,1 53539U 22101N   23153.70213690 -.00000010  00000-0  17450-4 0  9996,2 53539  53.2178 292.6194 0001027  89.8728 270.2381 15.08837496 43548,6917.888,95.438,540.464,539.043,0.0
53539.0,STARLINK-4123,PAYLOAD,2023-06-03 13:31:05,15.08836998,0.0001048,53.2174,288.7537,80.1083,280.0027,8.1231e-06,-1.58e-06,0.0,0 STARLINK-4123,1 53539U 22101N   23154.56326071 -.00000158  00000-0  81231-5 0  9991,2 53539  53.2174 288.7537 0001048  80.1083 280.0027 15.08836998 43678,6917.89,95.438,540.48,539.03,0.0
53539.0,STARLINK-4123,PAYLOAD,2023-06-03 18:17:14,15.08842049,0.0001097,53.2172,287.8612,81.1589,278.9528,4.7267e-05,4.65e-06,0.0,0 STARLINK-4123,1 53539U 22101N   23154.76197630  .00000465  00000-0  47267-4 0  9990,2 53539  53.2172 287.8612 0001097  81.1589 278.9528 15.08842049 43706,6917.874,95.437,540.498,538.98,0.0
53539.0,STARLINK-4123,PAYLOAD,2023-06-04 14:57:15,15.08845915,0.0001001,53.2169,283.9955,83.6126,276.498,0.00016043,2.267e-05,0.0,0 STARLINK-4123,1 53539U 22101N   23155.62309057  .00002267  00000-0  16043-3 0  9993,2 53539  53.2169 283.9955 0001001  83.6126 276.4980 15.08845915 43832,6917.862,95.437,540.42,539.035,0.0
53539.0,STARLINK-4123,PAYLOAD,2023-06-04 18:08:01,15.08848184,0.0001044,53.2167,283.4004,83.9266,276.1845,0.00017512,2.501e-05,0.0,0 STARLINK-4123,1 53539U 22101N   23155.75556850  .00002501  00000-0  17512-3 0  9995,2 53539  53.2167 283.4004 0001044  83.9266 276.1845 15.08848184 43855,6917.855,95.437,540.443,538.998,0.0
53539.0,STARLINK-4123,PAYLOAD,2023-06-05 02:04:57,15.08843259,9.69e-05,53.2171,281.9144,79.7999,280.3102,0.00011469,1.538e-05,0.0,0 STARLINK-4123,1 53539U 22101N   23156.08677275  .00001538  00000-0  11469-3 0  9991,2 53539  53.2171 281.9144 0000969  79.7999 280.3102 15.08843259 43906,6917.87,95.437,540.406,539.065,0.0
53539.0,STARLINK-4123,PAYLOAD,2023-06-05 13:12:39,15.08840667,0.0001068,53.2168,279.8323,91.7984,268.313,9.9293e-05,1.293e-05,0.0,0 STARLINK-4123,1 53539U 22101N   23156.55045567  .00001293  00000-0  99293-4 0  9996,2 53539  53.2168 279.8323 0001068  91.7984 268.3130 15.08840667 43970,6917.878,95.438,540.482,539.005,0.0
53539.0,STARLINK-4123,PAYLOAD,2023-06-05 17:58:48,15.08846619,0.000106,53.2168,278.9404,91.9166,268.1948,8.7572e-05,1.106e-05,0.0,0 STARLINK-4123,1 53539U 22101N   23156.74917213  .00001106  00000-0  87572-4 0  9993,2 53539  53.2168 278.9404 0001060  91.9166 268.1948 15.08846619 44009,6917.86,95.437,540.458,538.992,0.0
53539.0,STARLINK-4123,PAYLOAD,2023-06-06 08:17:17,15.08839511,9.91e-05,53.2166,276.264,89.9265,270.184,6.5861e-06,-1.83e-06,0.0,0 STARLINK-4123,1 53539U 22101N   23157.34533814 -.00000183  00000-0  65861-5 0  9994,2 53539  53.2166 276.2640 0000991  89.9265 270.1840 15.08839511 44095,6917.882,95.438,540.432,539.061,0.0
53539.0,STARLINK-4123,PAYLOAD,2023-06-06 11:28:03,15.08839855,0.0001032,53.2167,275.6689,94.0049,266.1061,2.3135e-06,-2.51e-06,0.0,0 STARLINK-4123,1 53539U 22101N   23157.47781799 -.00000251  00000-0  23135-5 0  9999,2 53539  53.2167 275.6689 0001032  94.0049 266.1061 15.08839855 44110,6917.881,95.438,540.46,539.032,0.0
53539.0,STARLINK-4123,PAYLOAD,2023-06-06 16:14:12,15.08855992,9.71e-05,53.2169,274.7767,91.9376,268.1727,-0.0001175,-2.158e-05,0.0,0 STARLINK-4123,1 53539U 22101N   23157.67653021 -.00002158  00000-0 -11750-3 0  9994,2 53539  53.2169 274.7767 0000971  91.9376 268.1727 15.08855992 44143,6917.832,95.437,540.368,539.025,0.0
53539.0,STARLINK-4123,PAYLOAD,2023-06-06 17:49:35,15.08860951,9.6e-05,53.2169,274.4792,92.3824,267.7278,-0.00014556,-2.605e-05,0.0,0 STARLINK-4123,1 53539U 22101N   23157.74276713 -.00002605  00000-0 -14556-3 0  9995,2 53539  53.2169 274.4792 0000960  92.3824 267.7278 15.08860951 44157,6917.816,95.436,540.345,539.017,0.0
53539.0,STARLINK-4123,PAYLOAD,2023-06-07 08:08:04,15.08831988,0.000107,53.2173,271.805,88.9562,271.1553,1.5477e-05,-4.1e-07,0.0,0 STARLINK-4123,1 53539U 22101N   23158.33894298 -.00000041  00000-0  15477-4 0  9990,2 53539  53.2173 271.8050 0001070  88.9562 271.1553 15.08831988 44246,6917.905,95.438,540.51,539.03,0.0
53539.0,STARLINK-4123,PAYLOAD,2023-06-07 17:40:22,15.08842145,0.0001283,53.2166,270.019,104.3848,255.7286,3.1715e-05,2.17e-06,0.0,0 STARLINK-4123,1 53539U 22101N   23158.73637619  .00000217  00000-0  31715-4 0  9993,2 53539  53.2166 270.0190 0001283 104.3848 255.7286 15.08842145 44305,6917.874,95.437,540.626,538.851,0.0
